NORAD_CAT_ID,OBJECT_NAME,OBJECT_TYPE,EPOCH,MEAN_MOTION,ECCENTRICITY,INCLINATION,RA_OF_ASC_NODE,ARG_OF_PERICENTER,MEAN_ANOMALY,BSTAR,MEAN_MOTION_DOT,MEAN_MOTION_DDOT,TLE_LINE0,TLE_LINE1,TLE_LINE2,SEMIMAJOR_AXIS,PERIOD,APOGEE,PERIGEE,DECAYED
54165.0,STARLINK-5279,PAYLOAD,2023-01-15 12:44:26,15.08828893,0.0001551,53.2141,132.88299999999998,71.5264,288.5896,0.00027275,4.054e-05,0.0,0 STARLINK-5279,1 54165U 22141J   23015.53086375  .00004054  00000-0  27275-3 0  9998,2 54165  53.2141 132.8830 0001551  71.5264 288.5896 15.08828893 12237,6917.914000000001,95.438,540.852,538.706,0.0
54165.0,STARLINK-5279,PAYLOAD,2023-01-15 17:30:35,15.08842523,0.0001568,53.2149,131.9887,80.4877,279.6292,0.00044352,6.778e-05,0.0,0 STARLINK-5279,1 54165U 22141J   23015.72957931  .00006778  00000-0  44352-3 0  9994,2 54165  53.2149 131.9887 0001568  80.4877 279.6292 15.08842523 12264,6917.8730000000005,95.437,540.822,538.653,0.0
54165.0,STARLINK-5279,PAYLOAD,2023-01-16 10:59:50,15.08844416,0.0001553,53.2151,128.7163,89.1861,270.9309,0.00030315,4.541e-05,0.0,0 STARLINK-5279,1 54165U 22141J   23016.45821932  .00004541  00000-0  30315-3 0  9996,2 54165  53.2151 128.7163 0001553  89.1861 270.9309 15.08844416 12379,6917.866999999999,95.437,540.806,538.658,0.0
54165.0,STARLINK-5279,PAYLOAD,2023-01-16 14:10:36,15.08851468,0.0001491,53.215,128.1242,77.911,282.2049,0.00041769,6.368e-05,0.0,0 STARLINK-5279,1 54165U 22141J   23016.59069723  .00006368  00000-0  41769-3 0  9997,2 54165  53.2150 128.1242 0001491  77.9110 282.2049 15.08851468 12397,6917.845,95.437,540.742,538.679,0.0
54165.0,STARLINK-5279,PAYLOAD,2023-01-16 17:21:22,15.08860091,0.0001545,53.2157,127.5292,82.9374,277.1794,0.00078169,0.00012181,0.0,0 STARLINK-5279,1 54165U 22141J   23016.72317591  .00012181  00000-0  78169-3 0  9995,2 54165  53.2157 127.5292 0001545  82.9374 277.1794 15.08860091 12415,6917.819,95.436,540.753,538.615,0.0
54165.0,STARLINK-5279,PAYLOAD,2023-01-16 23:42:55,15.08829918,0.0001886999999999,53.2147,126.3384,78.7423,281.3781,-8.4415e-05,-1.631e-05,0.0,0 STARLINK-5279,1 54165U 22141J   23016.98814490 -.00001631  00000-0 -84415-4 0  9995,2 54165  53.2147 126.3384 0001887  78.7423 281.3781 15.08829918 12450,6917.911,95.438,541.082,538.471,0.0
54165.0,STARLINK-5279,PAYLOAD,2023-01-17 07:39:52,15.08822286,0.000177,53.2159,124.8544,100.9971,259.1221,-0.00046273,-7.641e-05,0.0,0 STARLINK-5279,1 54165U 22141J   23017.31935354 -.00007641  00000-0 -46273-3 0  9992,2 54165  53.2159 124.8544 0001770 100.9971 259.1221 15.08822286 12500,6917.935,95.439,541.024,538.575,0.0
54165.0,STARLINK-5279,PAYLOAD,2023-01-17 14:01:24,15.08818694,0.0001504,53.2154,123.666,101.0774,259.0388,-6.9782e-05,-1.398e-05,0.0,0 STARLINK-5279,1 54165U 22141J   23017.58431372 -.00001398  00000-0 -69782-4 0  9996,2 54165  53.2154 123.6660 0001504 101.0774 259.0388 15.08818694 12544,6917.946,95.439,540.851,538.77,0.0
54165.0,STARLINK-5279,PAYLOAD,2023-01-17 17:12:11,15.0882195,0.0001686999999999,53.2148,123.0701,96.5552,263.5632,0.00056589,8.725e-05,0.0,0 STARLINK-5279,1 54165U 22141J   23017.71679677  .00008725  00000-0  56589-3 0  9992,2 54165  53.2148 123.0701 0001687  96.5552 263.5632 15.08821950 12564,6917.936,95.439,540.9680000000001,538.634,0.0
54165.0,STARLINK-5279,PAYLOAD,2023-01-17 17:53:57,15.08895732,7.11e-05,53.2188,122.9405,99.3737,58.3841,0.0084495,0.00137022,0.0,0 STARLINK-5279,1 54165U 22141J   23017.74579954  .00137022  00000-0  84495-2 0  9991,2 54165  53.2188 122.9405 0000711  99.3737  58.3841 15.08895732 12561,6917.71,95.434,540.067,539.0830000000001,0.0
54165.0,STARLINK-5279,PAYLOAD,2023-01-18 09:06:02,15.08868716,0.0001296999999999,53.2148,120.096,102.6515,257.4622,0.0022311999999999,0.00035428,0.0,0 STARLINK-5279,1 54165U 22141J   23018.37919421  .00035428  00000-0  22312-2 0  9995,2 54165  53.2148 120.0960 0001297 102.6515 257.4622 15.08868716 12666,6917.793000000001,95.436,540.555,538.76,0.0
54165.0,STARLINK-5279,PAYLOAD,2023-01-18 13:52:11,15.08887013,0.0001249,53.2149,119.2041,99.5601,260.5533,0.0025901,0.00041228,0.0,0 STARLINK-5279,1 54165U 22141J   23018.57790895  .00041228  00000-0  25901-2 0  9991,2 54165  53.2149 119.2041 0001249  99.5601 260.5533 15.08887013 12694,6917.736999999999,95.435,540.466,538.738,0.0
54165.0,STARLINK-5279,PAYLOAD,2023-01-19 05:46:02,15.0885417,0.0001485,53.2164,116.2323,95.9808,264.1354,0.00059308,9.167e-05,0.0,0 STARLINK-5279,1 54165U 22141J   23019.24030912  .00009167  00000-0  59308-3 0  9998,2 54165  53.2164 116.2323 0001485  95.9808 264.1354 15.08854170 12792,6917.837,95.437,540.729,538.675,0.0
54165.0,STARLINK-5279,PAYLOAD,2023-01-19 07:21:25,15.0886079,0.0001479,53.2149,115.9334,83.8929,276.2232,0.0014799,0.00023357,0.0,0 STARLINK-5279,1 54165U 22141J   23019.30655039  .00023357  00000-0  14799-2 0  9999,2 54165  53.2149 115.9334 0001479  83.8929 276.2232 15.08860790 12802,6917.816999999999,95.436,540.705,538.659,0.0
54165.0,STARLINK-5279,PAYLOAD,2023-01-19 15:18:22,15.08841779,0.0001357,53.2149,114.4463,63.7132,296.4,0.0021659,0.00034352,0.0,0 STARLINK-5279,1 54165U 22141J   23019.63775463  .00034352  00000-0  21659-2 0  9999,2 54165  53.2149 114.4463 0001357  63.7132 296.4000 15.08841779 12855,6917.875,95.437,540.679,538.8009999999999,0.0
54165.0,STARLINK-5279,PAYLOAD,2023-01-19 23:15:17,15.08851858,0.000144,53.2149,112.9597,63.5963,296.5177,0.0017744,0.00028074,0.0,0 STARLINK-5279,1 54165U 22141J   23019.96895485  .00028074  00000-0  17744-2 0  9996,2 54165  53.2149 112.9597 0001440  63.5963 296.5177 15.08851858 12900,6917.844,95.437,540.705,538.7130000000001,0.0
54165.0,STARLINK-5279,PAYLOAD,2023-01-20 11:58:22,15.08865298,0.0001605,53.2151,110.5816,62.9838,297.1317,0.0014489,0.00022862,0.0,0 STARLINK-5279,1 54165U 22141J   23020.49887070  .00022862  00000-0  14489-2 0  9999,2 54165  53.2151 110.5816 0001605  62.9838 297.1317 15.08865298 12982,6917.803000000001,95.436,540.778,538.558,0.0
54165.0,STARLINK-5279,PAYLOAD,2023-01-21 05:27:36,15.08848882,0.0001075999999999,53.2155,107.3093,75.3388,284.7723,-3.0614e-05,-7.75e-06,0.0,0 STARLINK-5279,1 54165U 22141J   23021.22750297 -.00000775  00000-0 -30614-4 0  9992,2 54165  53.2155 107.3093 0001076  75.3388 284.7723 15.08848882 13093,6917.853,95.437,540.4630000000001,538.974,0.0
54165.0,STARLINK-5279,PAYLOAD,2023-01-21 11:49:08,15.08860852,0.0001062,53.215,106.1207,72.2009,287.9099,0.0005312,8.181e-05,0.0,0 STARLINK-5279,1 54165U 22141J   23021.49245931  .00008181  00000-0  53120-3 0  9998,2 54165  53.2150 106.1207 0001062  72.2009 287.9099 15.08860852 13130,6917.816999999999,95.436,540.4159999999999,538.947,0.0
54165.0,STARLINK-5279,PAYLOAD,2023-01-22 05:18:23,15.08857348,0.0001593,53.2151,102.8515,78.4203,281.6968,0.0010285,0.00016126,0.0,0 STARLINK-5279,1 54165U 22141J   23022.22110262  .00016126  00000-0  10285-2 0  9990,2 54165  53.2151 102.8515 0001593  78.4203 281.6968 15.08857348 13243,6917.826999999999,95.436,540.794,538.59,0.0
54165.0,STARLINK-5279,PAYLOAD,2023-01-22 11:39:55,15.08851056,9.78e-05,53.2159,101.6611,87.5833,272.5271,0.0016512999999999,0.00026098,0.0,0 STARLINK-5279,1 54165U 22141J   23022.48606169  .00026098  00000-0  16513-2 0  9993,2 54165  53.2159 101.6611 0000978  87.5833 272.5271 15.08851056 13281,6917.847,95.437,540.388,539.035,0.0
54165.0,STARLINK-5279,PAYLOAD,2023-01-23 05:09:10,15.08851289,0.0001024,53.2143,98.3888,111.005,249.1052,0.0015892,0.00025102,0.0,0 STARLINK-5279,1 54165U 22141J   23023.21470675  .00025102  00000-0  15892-2 0  9990,2 54165  53.2143  98.3888 0001024 111.0050 249.1052 15.08851289 13396,6917.846,95.437,540.419,539.002,0.0
54165.0,STARLINK-5279,PAYLOAD,2023-01-23 11:30:43,15.08840435,9.43e-05,53.2145,97.1997,107.1677,252.9418,0.0016137,0.00025488,0.0,0 STARLINK-5279,1 54165U 22141J   23023.47966792  .00025488  00000-0  16137-2 0  9998,2 54165  53.2145  97.1997 0000943 107.1677 252.9418 15.08840435 13430,6917.879,95.438,540.396,539.092,0.0
54165.0,STARLINK-5279,PAYLOAD,2023-01-24 04:59:58,15.08842881,9.47e-05,53.2151,93.9283,94.3412,265.7688,0.0011642,0.0001829,0.0,0 STARLINK-5279,1 54165U 22141J   23024.20831281  .00018290  00000-0  11642-2 0  9993,2 54165  53.2151  93.9283 0000947  94.3412 265.7688 15.08842881 13547,6917.871999999999,95.437,540.3919999999999,539.081,0.0
54165.0,STARLINK-5279,PAYLOAD,2023-01-24 09:46:07,15.08839022,0.0001286,53.2153,93.0366,107.8762,252.2371,0.00040832,6.216e-05,0.0,0 STARLINK-5279,1 54165U 22141J   23024.40703243  .00006216  00000-0  40832-3 0  9990,2 54165  53.2153  93.0366 0001286 107.8762 252.2371 15.08839022 13573,6917.883000000001,95.438,540.638,538.859,0.0
54165.0,STARLINK-5279,PAYLOAD,2023-01-25 04:50:45,15.08832623,0.0001601,53.215,89.4669,119.1088,241.0064,0.00011401,1.527e-05,0.0,0 STARLINK-5279,1 54165U 22141J   23025.20191760  .00001527  00000-0  11401-3 0  9994,2 54165  53.2150  89.4669 0001601 119.1088 241.0064 15.08832623 13691,6917.903,95.438,540.875,538.66,0.0
54165.0,STARLINK-5279,PAYLOAD,2023-01-25 11:12:18,15.08836572,0.0001117,53.2143,88.2779,109.5304,250.5809,0.00017122,2.438e-05,0.0,0 STARLINK-5279,1 54165U 22141J   23025.46687799  .00002438  00000-0  17122-3 0  9992,2 54165  53.2143  88.2779 0001117 109.5304 250.5809 15.08836572 13732,6917.891,95.438,540.529,538.9830000000001,0.0
54165.0,STARLINK-5279,PAYLOAD,2023-01-26 07:52:18,15.08846211,0.0001062,53.2143,84.4119,109.4193,250.6914,0.00026431,3.922e-05,0.0,0 STARLINK-5279,1 54165U 22141J   23026.32799536  .00003922  00000-0  26431-3 0  9993,2 54165  53.2143  84.4119 0001062 109.4193 250.6914 15.08846211 13865,6917.861,95.437,540.461,538.992,0.0
54165.0,STARLINK-5279,PAYLOAD,2023-01-26 11:03:04,15.08851153,0.0001085999999999,53.2139,83.8169,108.716,251.395,0.0003506,5.298e-05,0.0,0 STARLINK-5279,1 54165U 22141J   23026.46047378  .00005298  00000-0  35060-3 0  9994,2 54165  53.2139  83.8169 0001086 108.7160 251.3950 15.08851153 13881,6917.846,95.437,540.4630000000001,538.96,0.0
